[{"OBJECT_NAME":"GAOFEN-14 01","OBJECT_ID":"2020-092A","EPOCH":"2026-03-09T23:18:15.156000","MEAN_MOTION":15.25725011,"ECCENTRICITY":0.0008015,"INCLINATION":97.4817,"RA_OF_ASC_NODE":139.2507,"ARG_OF_PERICENTER":138.8844,"MEAN_ANOMALY":221.2999,"EPHEMERIS_TYPE":0,"CLASSIFICATION_TYPE":"U","NORAD_CAT_ID":47231,"ELEMENT_SET_NO":999,"REV_AT_EPOCH":29270,"BSTAR":0.00022250672,"MEAN_MOTION_DOT":5.605e-5,"MEAN_MOTION_DDOT":0},{"OBJECT_NAME":"STARLINK-30917","OBJECT_ID":"2023-180T","EPOCH":"2026-03-09T00:22:09.975936","MEAN_MOTION":15.27580357,"ECCENTRICITY":0.00018233,"INCLINATION":43.0035,"RA_OF_ASC_NODE":307.5638,"ARG_OF_PERICENTER":256.5365,"MEAN_ANOMALY":103.5284,"EPHEMERIS_TYPE":0,"CLASSIFICATION_TYPE":"U","NORAD_CAT_ID":58419,"ELEMENT_SET_NO":999,"REV_AT_EPOCH":12879,"BSTAR":-1.7789836e-5,"MEAN_MOTION_DOT":-7.52e-6,"MEAN_MOTION_DDOT":0}]
